CCSDS_OMM_VERS = 2.0
CREATION_DATE  = 
ORIGINATOR     = 

OBJECT_NAME    = UNKNOWN
OBJECT_ID      = 
CENTER_NAME    = EARTH
REF_FRAME      = TEME
TIME_SYSTEM    = UTC
MEAN_ELEMENT_THEORY = SGP/SGP4

EPOCH          = 2026-03-21T09:36:14.865984
MEAN_MOTION    = 13.92631805
ECCENTRICITY   = .02467226
INCLINATION    = 98.9015
RA_OF_ASC_NODE = 136.7373
ARG_OF_PERICENTER = 34.1946
MEAN_ANOMALY   = 327.4831

EPHEMERIS_TYPE = 0
CLASSIFICATION_TYPE = U
NORAD_CAT_ID   = 270043
ELEMENT_SET_NO = 999
REV_AT_EPOCH   = 31926
BSTAR          = .88861772E-3
MEAN_MOTION_DOT = .1431E-4
MEAN_MOTION_DDOT = 0

CCSDS_OMM_VERS = 2.0
CREATION_DATE  = 
ORIGINATOR     = 

OBJECT_NAME    = UNKNOWN
OBJECT_ID      = 
CENTER_NAME    = EARTH
REF_FRAME      = TEME
TIME_SYSTEM    = UTC
MEAN_ELEMENT_THEORY = SGP/SGP4

EPOCH          = 2026-03-23T01:22:59.696832
MEAN_MOTION    = 13.00651669
ECCENTRICITY   = .00172153
INCLINATION    = 90.2562
RA_OF_ASC_NODE = 11.5136
ARG_OF_PERICENTER = 81.8873
MEAN_ANOMALY   = 278.4202

EPHEMERIS_TYPE = 0
CLASSIFICATION_TYPE = U
NORAD_CAT_ID   = 270044
ELEMENT_SET_NO = 999
REV_AT_EPOCH   = 29961
BSTAR          = -.87273415E-3
MEAN_MOTION_DOT = -.257E-5
MEAN_MOTION_DDOT = 0

CCSDS_OMM_VERS = 2.0
CREATION_DATE  = 
ORIGINATOR     = 

OBJECT_NAME    = UNKNOWN
OBJECT_ID      = 
CENTER_NAME    = EARTH
REF_FRAME      = TEME
TIME_SYSTEM    = UTC
MEAN_ELEMENT_THEORY = SGP/SGP4

EPOCH          = 2026-03-21T12:27:48.293280
MEAN_MOTION    = 12.96435927
ECCENTRICITY   = .00407357
INCLINATION    = 90.2556
RA_OF_ASC_NODE = 11.4417
ARG_OF_PERICENTER = 5.9231
MEAN_ANOMALY   = 354.2363

EPHEMERIS_TYPE = 0
CLASSIFICATION_TYPE = U
NORAD_CAT_ID   = 270045
ELEMENT_SET_NO = 999
REV_AT_EPOCH   = 29879
BSTAR          = -.90403873E-3
MEAN_MOTION_DOT = -.252E-5
MEAN_MOTION_DDOT = 0

CCSDS_OMM_VERS = 2.0
CREATION_DATE  = 
ORIGINATOR     = 

OBJECT_NAME    = UNKNOWN
OBJECT_ID      = 
CENTER_NAME    = EARTH
REF_FRAME      = TEME
TIME_SYSTEM    = UTC
MEAN_ELEMENT_THEORY = SGP/SGP4

EPOCH          = 2026-03-20T18:31:21.320256
MEAN_MOTION    = 12.62586384
ECCENTRICITY   = .00584628
INCLINATION    = 73.9901
RA_OF_ASC_NODE = 272.9722
ARG_OF_PERICENTER = 321.2575
MEAN_ANOMALY   = 38.4296

EPHEMERIS_TYPE = 0
CLASSIFICATION_TYPE = U
NORAD_CAT_ID   = 270046
ELEMENT_SET_NO = 999
REV_AT_EPOCH   = 29082
BSTAR          = .14190762E-3
MEAN_MOTION_DOT = .9E-7
MEAN_MOTION_DDOT = 0

CCSDS_OMM_VERS = 2.0
CREATION_DATE  = 
ORIGINATOR     = 

OBJECT_NAME    = UNKNOWN
OBJECT_ID      = 
CENTER_NAME    = EARTH
REF_FRAME      = TEME
TIME_SYSTEM    = UTC
MEAN_ELEMENT_THEORY = SGP/SGP4

EPOCH          = 2026-03-22T14:57:22.419360
MEAN_MOTION    = 13.77855980
ECCENTRICITY   = .00340012
INCLINATION    = 82.9721
RA_OF_ASC_NODE = 201.0689
ARG_OF_PERICENTER = 101.3951
MEAN_ANOMALY   = 259.1029

EPHEMERIS_TYPE = 0
CLASSIFICATION_TYPE = U
NORAD_CAT_ID   = 270053
ELEMENT_SET_NO = 999
REV_AT_EPOCH   = 31733
BSTAR          = .37977196E-3
MEAN_MOTION_DOT = .397E-5
MEAN_MOTION_DDOT = 0

CCSDS_OMM_VERS = 2.0
CREATION_DATE  = 
ORIGINATOR     = 

OBJECT_NAME    = UNKNOWN
OBJECT_ID      = 
CENTER_NAME    = EARTH
REF_FRAME      = TEME
TIME_SYSTEM    = UTC
MEAN_ELEMENT_THEORY = SGP/SGP4

EPOCH          = 2026-03-19T11:37:20.511552
MEAN_MOTION    = 12.98366389
ECCENTRICITY   = .00285012
INCLINATION    = 90.2149
RA_OF_ASC_NODE = 345.8066
ARG_OF_PERICENTER = 252.4422
MEAN_ANOMALY   = 107.3585

EPHEMERIS_TYPE = 0
CLASSIFICATION_TYPE = U
NORAD_CAT_ID   = 270054
ELEMENT_SET_NO = 999
REV_AT_EPOCH   = 29887
BSTAR          = -.3261335E-2
MEAN_MOTION_DOT = -.953E-5
MEAN_MOTION_DDOT = 0

CCSDS_OMM_VERS = 2.0
CREATION_DATE  = 
ORIGINATOR     = 

OBJECT_NAME    = UNKNOWN
OBJECT_ID      = 
CENTER_NAME    = EARTH
REF_FRAME      = TEME
TIME_SYSTEM    = UTC
MEAN_ELEMENT_THEORY = SGP/SGP4

EPOCH          = 2026-03-19T13:03:20.547648
MEAN_MOTION    = 12.99323055
ECCENTRICITY   = .00290732
INCLINATION    = 90.2513
RA_OF_ASC_NODE = 3.0403
ARG_OF_PERICENTER = 233.7648
MEAN_ANOMALY   = 126.0786

EPHEMERIS_TYPE = 0
CLASSIFICATION_TYPE = U
NORAD_CAT_ID   = 270055
ELEMENT_SET_NO = 999
REV_AT_EPOCH   = 29917
BSTAR          = .28008949E-2
MEAN_MOTION_DOT = .843E-5
MEAN_MOTION_DDOT = 0

CCSDS_OMM_VERS = 2.0
CREATION_DATE  = 
ORIGINATOR     = 

OBJECT_NAME    = UNKNOWN
OBJECT_ID      = 
CENTER_NAME    = EARTH
REF_FRAME      = TEME
TIME_SYSTEM    = UTC
MEAN_ELEMENT_THEORY = SGP/SGP4

EPOCH          = 2026-03-22T11:59:22.540416
MEAN_MOTION    = 12.46234735
ECCENTRICITY   = .00811735
INCLINATION    = 101.5802
RA_OF_ASC_NODE = 178.3454
ARG_OF_PERICENTER = 306.1307
MEAN_ANOMALY   = 53.2269

EPHEMERIS_TYPE = 0
CLASSIFICATION_TYPE = U
NORAD_CAT_ID   = 270056
ELEMENT_SET_NO = 999
REV_AT_EPOCH   = 28738
BSTAR          = .27318363E-2
MEAN_MOTION_DOT = .357E-5
MEAN_MOTION_DDOT = 0

CCSDS_OMM_VERS = 2.0
CREATION_DATE  = 
ORIGINATOR     = 

OBJECT_NAME    = UNKNOWN
OBJECT_ID      = 
CENTER_NAME    = EARTH
REF_FRAME      = TEME
TIME_SYSTEM    = UTC
MEAN_ELEMENT_THEORY = SGP/SGP4

EPOCH          = 2026-03-19T02:22:17.540832
MEAN_MOTION    = 12.96145172
ECCENTRICITY   = .00484961
INCLINATION    = 90.2568
RA_OF_ASC_NODE = 11.2488
ARG_OF_PERICENTER = 27.8775
MEAN_ANOMALY   = 332.4928

EPHEMERIS_TYPE = 0
CLASSIFICATION_TYPE = U
NORAD_CAT_ID   = 270057
ELEMENT_SET_NO = 999
REV_AT_EPOCH   = 29847
BSTAR          = .23850095E-2
MEAN_MOTION_DOT = .69E-5
MEAN_MOTION_DDOT = 0

CCSDS_OMM_VERS = 2.0
CREATION_DATE  = 
ORIGINATOR     = 

OBJECT_NAME    = UNKNOWN
OBJECT_ID      = 
CENTER_NAME    = EARTH
REF_FRAME      = TEME
TIME_SYSTEM    = UTC
MEAN_ELEMENT_THEORY = SGP/SGP4

EPOCH          = 2026-03-22T12:05:53.623968
MEAN_MOTION    = 12.98003556
ECCENTRICITY   = .00259237
INCLINATION    = 90.2404
RA_OF_ASC_NODE = 3.4141
ARG_OF_PERICENTER = 272.2473
MEAN_ANOMALY   = 87.5679

EPHEMERIS_TYPE = 0
CLASSIFICATION_TYPE = U
NORAD_CAT_ID   = 270058
ELEMENT_SET_NO = 999
REV_AT_EPOCH   = 29929
BSTAR          = .84172278E-4
MEAN_MOTION_DOT = .32E-6
MEAN_MOTION_DDOT = 0

CCSDS_OMM_VERS = 2.0
CREATION_DATE  = 
ORIGINATOR     = 

OBJECT_NAME    = UNKNOWN
OBJECT_ID      = 
CENTER_NAME    = EARTH
REF_FRAME      = TEME
TIME_SYSTEM    = UTC
MEAN_ELEMENT_THEORY = SGP/SGP4

EPOCH          = 2026-03-14T19:51:31.445856
MEAN_MOTION    = 12.23008925
ECCENTRICITY   = .01295036
INCLINATION    = 73.9955
RA_OF_ASC_NODE = 288.4438
ARG_OF_PERICENTER = 265.6811
MEAN_ANOMALY   = 92.9417

EPHEMERIS_TYPE = 0
CLASSIFICATION_TYPE = U
NORAD_CAT_ID   = 270059
ELEMENT_SET_NO = 999
REV_AT_EPOCH   = 28124
BSTAR          = .47865086E-3
MEAN_MOTION_DOT = .37E-6
MEAN_MOTION_DDOT = 0

CCSDS_OMM_VERS = 2.0
CREATION_DATE  = 
ORIGINATOR     = 

OBJECT_NAME    = UNKNOWN
OBJECT_ID      = 
CENTER_NAME    = EARTH
REF_FRAME      = TEME
TIME_SYSTEM    = UTC
MEAN_ELEMENT_THEORY = SGP/SGP4

EPOCH          = 2026-03-20T08:47:07.411200
MEAN_MOTION    = 13.51131687
ECCENTRICITY   = .0539968
INCLINATION    = 30.0958
RA_OF_ASC_NODE = 328.9091
ARG_OF_PERICENTER = 176.6430
MEAN_ANOMALY   = 183.7978

EPHEMERIS_TYPE = 0
CLASSIFICATION_TYPE = U
NORAD_CAT_ID   = 270060
ELEMENT_SET_NO = 999
REV_AT_EPOCH   = 30923
BSTAR          = .10968577E-2
MEAN_MOTION_DOT = .1872E-4
MEAN_MOTION_DDOT = 0

CCSDS_OMM_VERS = 2.0
CREATION_DATE  = 
ORIGINATOR     = 

OBJECT_NAME    = UNKNOWN
OBJECT_ID      = 
CENTER_NAME    = EARTH
REF_FRAME      = TEME
TIME_SYSTEM    = UTC
MEAN_ELEMENT_THEORY = SGP/SGP4

EPOCH          = 2026-03-23T02:25:44.334048
MEAN_MOTION    = 14.24297191
ECCENTRICITY   = .0036627
INCLINATION    = 98.8568
RA_OF_ASC_NODE = 35.1058
ARG_OF_PERICENTER = 130.9275
MEAN_ANOMALY   = 229.5084

EPHEMERIS_TYPE = 0
CLASSIFICATION_TYPE = U
NORAD_CAT_ID   = 270063
ELEMENT_SET_NO = 999
REV_AT_EPOCH   = 32833
BSTAR          = .15079792E-3
MEAN_MOTION_DOT = .306E-5
MEAN_MOTION_DDOT = 0

CCSDS_OMM_VERS = 2.0
CREATION_DATE  = 
ORIGINATOR     = 

OBJECT_NAME    = UNKNOWN
OBJECT_ID      = 
CENTER_NAME    = EARTH
REF_FRAME      = TEME
TIME_SYSTEM    = UTC
MEAN_ELEMENT_THEORY = SGP/SGP4

EPOCH          = 2026-03-21T08:50:31.327296
MEAN_MOTION    = 14.47608605
ECCENTRICITY   = .0011464
INCLINATION    = 97.9793
RA_OF_ASC_NODE = 306.3594
ARG_OF_PERICENTER = 149.0985
MEAN_ANOMALY   = 211.0885

EPHEMERIS_TYPE = 0
CLASSIFICATION_TYPE = U
NORAD_CAT_ID   = 270064
ELEMENT_SET_NO = 999
REV_AT_EPOCH   = 33276
BSTAR          = .13793928E-3
MEAN_MOTION_DOT = .468E-5
MEAN_MOTION_DDOT = 0

CCSDS_OMM_VERS = 2.0
CREATION_DATE  = 
ORIGINATOR     = 

OBJECT_NAME    = UNKNOWN
OBJECT_ID      = 
CENTER_NAME    = EARTH
REF_FRAME      = TEME
TIME_SYSTEM    = UTC
MEAN_ELEMENT_THEORY = SGP/SGP4

EPOCH          = 2026-03-06T08:17:18.140640
MEAN_MOTION    = 12.22972953
ECCENTRICITY   = .01318317
INCLINATION    = 74.0018
RA_OF_ASC_NODE = 300.6153
ARG_OF_PERICENTER = 278.6902
MEAN_ANOMALY   = 79.9220

EPHEMERIS_TYPE = 0
CLASSIFICATION_TYPE = U
NORAD_CAT_ID   = 270065
ELEMENT_SET_NO = 999
REV_AT_EPOCH   = 28014
BSTAR          = -.18840341E-4
MEAN_MOTION_DOT = -.18E-6
MEAN_MOTION_DDOT = 0

CCSDS_OMM_VERS = 2.0
CREATION_DATE  = 
ORIGINATOR     = 

OBJECT_NAME    = UNKNOWN
OBJECT_ID      = 
CENTER_NAME    = EARTH
REF_FRAME      = TEME
TIME_SYSTEM    = UTC
MEAN_ELEMENT_THEORY = SGP/SGP4

EPOCH          = 2026-03-23T06:49:33.070656
MEAN_MOTION    = 14.62957690
ECCENTRICITY   = .00100626
INCLINATION    = 32.2212
RA_OF_ASC_NODE = 75.3725
ARG_OF_PERICENTER = 216.9081
MEAN_ANOMALY   = 143.0874

EPHEMERIS_TYPE = 0
CLASSIFICATION_TYPE = U
NORAD_CAT_ID   = 270066
ELEMENT_SET_NO = 999
REV_AT_EPOCH   = 33792
BSTAR          = .95284059E-4
MEAN_MOTION_DOT = .532E-5
MEAN_MOTION_DDOT = 0

